[{"OBJECT_NAME":"LEMUR-2-NEUROSPICY","OBJECT_ID":"2025-061E","EPOCH":"2026-03-09T21:29:47.005152","MEAN_MOTION":15.13370729,"ECCENTRICITY":0.00155025,"INCLINATION":97.5545,"RA_OF_ASC_NODE":45.3302,"ARG_OF_PERICENTER":239.5457,"MEAN_ANOMALY":120.4243,"EPHEMERIS_TYPE":0,"CLASSIFICATION_TYPE":"U","NORAD_CAT_ID":63355,"ELEMENT_SET_NO":999,"REV_AT_EPOCH":5259,"BSTAR":0.00032487858,"MEAN_MOTION_DOT":5.745e-5,"MEAN_MOTION_DDOT":0},{"OBJECT_NAME":"CZ-6A DEB","OBJECT_ID":"2022-151MM","EPOCH":"2026-03-09T16:36:35.308512","MEAN_MOTION":15.08432741,"ECCENTRICITY":0.0037582,"INCLINATION":98.6255,"RA_OF_ASC_NODE":147.7512,"ARG_OF_PERICENTER":182.2642,"MEAN_ANOMALY":177.8419,"EPHEMERIS_TYPE":0,"CLASSIFICATION_TYPE":"U","NORAD_CAT_ID":54585,"ELEMENT_SET_NO":999,"REV_AT_EPOCH":10505,"BSTAR":0.0062350664,"MEAN_MOTION_DOT":0.00099853,"MEAN_MOTION_DDOT":0}]
